<?xml version="1.0" encoding="UTF-8"?>
<ndm xmlns:xsi="http://www.w3.org/2001/XMLSchema-instance" xsi:noNamespaceSchemaLocation="https://sanaregistry.org/r/ndmxml_unqualified/ndmxml-2.0.0-master-2.0.xsd">
<omm id="CCSDS_OMM_VERS" version="2.0">
<header><CREATION_DATE/><ORIGINATOR/></header><body><segment><metadata><OBJECT_NAME>ONEWEB-0210</OBJECT_NAME><OBJECT_ID>2021-045W</OBJECT_ID><CENTER_NAME>EARTH</CENTER_NAME><REF_FRAME>TEME</REF_FRAME><TIME_SYSTEM>UTC</TIME_SYSTEM><MEAN_ELEMENT_THEORY>SGP4</MEAN_ELEMENT_THEORY></metadata><data><meanElements><EPOCH>2025-03-28T05:28:14.720160</EPOCH><MEAN_MOTION>13.15547519</MEAN_MOTION><ECCENTRICITY>.0002556</ECCENTRICITY><INCLINATION>87.9123</INCLINATION><RA_OF_ASC_NODE>348.0261</RA_OF_ASC_NODE><ARG_OF_PERICENTER>72.2143</ARG_OF_PERICENTER><MEAN_ANOMALY>287.9266</MEAN_ANOMALY></meanElements><tleParameters><EPHEMERIS_TYPE>0</EPHEMERIS_TYPE><CLASSIFICATION_TYPE>U</CLASSIFICATION_TYPE><NORAD_CAT_ID>48787</NORAD_CAT_ID><ELEMENT_SET_NO>999</ELEMENT_SET_NO><REV_AT_EPOCH>18568</REV_AT_EPOCH><BSTAR>.38291E-3</BSTAR><MEAN_MOTION_DOT>.157E-5</MEAN_MOTION_DOT><MEAN_MOTION_DDOT>0</MEAN_MOTION_DDOT></tleParameters></data></segment></body></omm>
<omm id="CCSDS_OMM_VERS" version="2.0">
<header><CREATION_DATE/><ORIGINATOR/></header><body><segment><metadata><OBJECT_NAME>ONEWEB-0214</OBJECT_NAME><OBJECT_ID>2021-045X</OBJECT_ID><CENTER_NAME>EARTH</CENTER_NAME><REF_FRAME>TEME</REF_FRAME><TIME_SYSTEM>UTC</TIME_SYSTEM><MEAN_ELEMENT_THEORY>SGP4</MEAN_ELEMENT_THEORY></metadata><data><meanElements><EPOCH>2025-03-28T05:41:56.775552</EPOCH><MEAN_MOTION>13.15547320</MEAN_MOTION><ECCENTRICITY>.0002422</ECCENTRICITY><INCLINATION>87.9122</INCLINATION><RA_OF_ASC_NODE>348.0134</RA_OF_ASC_NODE><ARG_OF_PERICENTER>77.7117</ARG_OF_PERICENTER><MEAN_ANOMALY>282.4284</MEAN_ANOMALY></meanElements><tleParameters><EPHEMERIS_TYPE>0</EPHEMERIS_TYPE><CLASSIFICATION_TYPE>U</CLASSIFICATION_TYPE><NORAD_CAT_ID>48788</NORAD_CAT_ID><ELEMENT_SET_NO>999</ELEMENT_SET_NO><REV_AT_EPOCH>18565</REV_AT_EPOCH><BSTAR>.73216E-3</BSTAR><MEAN_MOTION_DOT>.288E-5</MEAN_MOTION_DOT><MEAN_MOTION_DDOT>0</MEAN_MOTION_DDOT></tleParameters></data></segment></body></omm>
<omm id="CCSDS_OMM_VERS" version="2.0">
<header><CREATION_DATE/><ORIGINATOR/></header><body><segment><metadata><OBJECT_NAME>ONEWEB-0221</OBJECT_NAME><OBJECT_ID>2021-045Y</OBJECT_ID><CENTER_NAME>EARTH</CENTER_NAME><REF_FRAME>TEME</REF_FRAME><TIME_SYSTEM>UTC</TIME_SYSTEM><MEAN_ELEMENT_THEORY>SGP4</MEAN_ELEMENT_THEORY></metadata><data><meanElements><EPOCH>2025-03-28T16:48:12.803616</EPOCH><MEAN_MOTION>13.15548679</MEAN_MOTION><ECCENTRICITY>.0001856</ECCENTRICITY><INCLINATION>87.9124</INCLINATION><RA_OF_ASC_NODE>347.9474</RA_OF_ASC_NODE><ARG_OF_PERICENTER>72.9246</ARG_OF_PERICENTER><MEAN_ANOMALY>287.2087</MEAN_ANOMALY></meanElements><tleParameters><EPHEMERIS_TYPE>0</EPHEMERIS_TYPE><CLASSIFICATION_TYPE>U</CLASSIFICATION_TYPE><NORAD_CAT_ID>48789</NORAD_CAT_ID><ELEMENT_SET_NO>999</ELEMENT_SET_NO><REV_AT_EPOCH>18694</REV_AT_EPOCH><BSTAR>.34239E-3</BSTAR><MEAN_MOTION_DOT>.142E-5</MEAN_MOTION_DOT><MEAN_MOTION_DDOT>0</MEAN_MOTION_DDOT></tleParameters></data></segment></body></omm>
<omm id="CCSDS_OMM_VERS" version="2.0">
<header><CREATION_DATE/><ORIGINATOR/></header><body><segment><metadata><OBJECT_NAME>ONEWEB-0213</OBJECT_NAME><OBJECT_ID>2021-045Z</OBJECT_ID><CENTER_NAME>EARTH</CENTER_NAME><REF_FRAME>TEME</REF_FRAME><TIME_SYSTEM>UTC</TIME_SYSTEM><MEAN_ELEMENT_THEORY>SGP4</MEAN_ELEMENT_THEORY></metadata><data><meanElements><EPOCH>2025-03-28T05:35:05.430336</EPOCH><MEAN_MOTION>13.15547277</MEAN_MOTION><ECCENTRICITY>.0002175</ECCENTRICITY><INCLINATION>87.9125</INCLINATION><RA_OF_ASC_NODE>348.0486</RA_OF_ASC_NODE><ARG_OF_PERICENTER>72.7337</ARG_OF_PERICENTER><MEAN_ANOMALY>287.4032</MEAN_ANOMALY></meanElements><tleParameters><EPHEMERIS_TYPE>0</EPHEMERIS_TYPE><CLASSIFICATION_TYPE>U</CLASSIFICATION_TYPE><NORAD_CAT_ID>48790</NORAD_CAT_ID><ELEMENT_SET_NO>999</ELEMENT_SET_NO><REV_AT_EPOCH>18580</REV_AT_EPOCH><BSTAR>.63925E-3</BSTAR><MEAN_MOTION_DOT>.253E-5</MEAN_MOTION_DOT><MEAN_MOTION_DDOT>0</MEAN_MOTION_DDOT></tleParameters></data></segment></body></omm>
<omm id="CCSDS_OMM_VERS" version="2.0">
<header><CREATION_DATE/><ORIGINATOR/></header><body><segment><metadata><OBJECT_NAME>ONEWEB-0212</OBJECT_NAME><OBJECT_ID>2021-045AA</OBJECT_ID><CENTER_NAME>EARTH</CENTER_NAME><REF_FRAME>TEME</REF_FRAME><TIME_SYSTEM>UTC</TIME_SYSTEM><MEAN_ELEMENT_THEORY>SGP4</MEAN_ELEMENT_THEORY></metadata><data><meanElements><EPOCH>2025-03-28T06:51:31.645152</EPOCH><MEAN_MOTION>13.15547855</MEAN_MOTION><ECCENTRICITY>.0001781</ECCENTRICITY><INCLINATION>87.9125</INCLINATION><RA_OF_ASC_NODE>348.0262</RA_OF_ASC_NODE><ARG_OF_PERICENTER>77.4152</ARG_OF_PERICENTER><MEAN_ANOMALY>282.7178</MEAN_ANOMALY></meanElements><tleParameters><EPHEMERIS_TYPE>0</EPHEMERIS_TYPE><CLASSIFICATION_TYPE>U</CLASSIFICATION_TYPE><NORAD_CAT_ID>48791</NORAD_CAT_ID><ELEMENT_SET_NO>999</ELEMENT_SET_NO><REV_AT_EPOCH>18580</REV_AT_EPOCH><BSTAR>-.98967E-4</BSTAR><MEAN_MOTION_DOT>-.24E-6</MEAN_MOTION_DOT><MEAN_MOTION_DDOT>0</MEAN_MOTION_DDOT></tleParameters></data></segment></body></omm>
<omm id="CCSDS_OMM_VERS" version="2.0">
<header><CREATION_DATE/><ORIGINATOR/></header><body><segment><metadata><OBJECT_NAME>ONEWEB-0227</OBJECT_NAME><OBJECT_ID>2021-045AB</OBJECT_ID><CENTER_NAME>EARTH</CENTER_NAME><REF_FRAME>TEME</REF_FRAME><TIME_SYSTEM>UTC</TIME_SYSTEM><MEAN_ELEMENT_THEORY>SGP4</MEAN_ELEMENT_THEORY></metadata><data><meanElements><EPOCH>2025-03-28T06:50:23.072928</EPOCH><MEAN_MOTION>13.15548376</MEAN_MOTION><ECCENTRICITY>.0001859</ECCENTRICITY><INCLINATION>87.9128</INCLINATION><RA_OF_ASC_NODE>348.0391</RA_OF_ASC_NODE><ARG_OF_PERICENTER>73.3160</ARG_OF_PERICENTER><MEAN_ANOMALY>286.8174</MEAN_ANOMALY></meanElements><tleParameters><EPHEMERIS_TYPE>0</EPHEMERIS_TYPE><CLASSIFICATION_TYPE>U</CLASSIFICATION_TYPE><NORAD_CAT_ID>48792</NORAD_CAT_ID><ELEMENT_SET_NO>999</ELEMENT_SET_NO><REV_AT_EPOCH>18575</REV_AT_EPOCH><BSTAR>-.21304E-3</BSTAR><MEAN_MOTION_DOT>-.67E-6</MEAN_MOTION_DOT><MEAN_MOTION_DDOT>0</MEAN_MOTION_DDOT></tleParameters></data></segment></body></omm>
<omm id="CCSDS_OMM_VERS" version="2.0">
<header><CREATION_DATE/><ORIGINATOR/></header><body><segment><metadata><OBJECT_NAME>ONEWEB-0226</OBJECT_NAME><OBJECT_ID>2021-045AC</OBJECT_ID><CENTER_NAME>EARTH</CENTER_NAME><REF_FRAME>TEME</REF_FRAME><TIME_SYSTEM>UTC</TIME_SYSTEM><MEAN_ELEMENT_THEORY>SGP4</MEAN_ELEMENT_THEORY></metadata><data><meanElements><EPOCH>2025-03-28T17:38:24.427680</EPOCH><MEAN_MOTION>13.15548642</MEAN_MOTION><ECCENTRICITY>.0002202</ECCENTRICITY><INCLINATION>87.9125</INCLINATION><RA_OF_ASC_NODE>347.9548</RA_OF_ASC_NODE><ARG_OF_PERICENTER>73.5439</ARG_OF_PERICENTER><MEAN_ANOMALY>286.5933</MEAN_ANOMALY></meanElements><tleParameters><EPHEMERIS_TYPE>0</EPHEMERIS_TYPE><CLASSIFICATION_TYPE>U</CLASSIFICATION_TYPE><NORAD_CAT_ID>48793</NORAD_CAT_ID><ELEMENT_SET_NO>999</ELEMENT_SET_NO><REV_AT_EPOCH>18690</REV_AT_EPOCH><BSTAR>.13282E-3</BSTAR><MEAN_MOTION_DOT>.63E-6</MEAN_MOTION_DOT><MEAN_MOTION_DDOT>0</MEAN_MOTION_DDOT></tleParameters></data></segment></body></omm>
<omm id="CCSDS_OMM_VERS" version="2.0">
<header><CREATION_DATE/><ORIGINATOR/></header><body><segment><metadata><OBJECT_NAME>ONEWEB-0224</OBJECT_NAME><OBJECT_ID>2021-045AD</OBJECT_ID><CENTER_NAME>EARTH</CENTER_NAME><REF_FRAME>TEME</REF_FRAME><TIME_SYSTEM>UTC</TIME_SYSTEM><MEAN_ELEMENT_THEORY>SGP4</MEAN_ELEMENT_THEORY></metadata><data><meanElements><EPOCH>2025-03-28T05:48:46.477440</EPOCH><MEAN_MOTION>13.15547247</MEAN_MOTION><ECCENTRICITY>.0001412</ECCENTRICITY><INCLINATION>87.9127</INCLINATION><RA_OF_ASC_NODE>348.0853</RA_OF_ASC_NODE><ARG_OF_PERICENTER>45.7775</ARG_OF_PERICENTER><MEAN_ANOMALY>314.3471</MEAN_ANOMALY></meanElements><tleParameters><EPHEMERIS_TYPE>0</EPHEMERIS_TYPE><CLASSIFICATION_TYPE>U</CLASSIFICATION_TYPE><NORAD_CAT_ID>48794</NORAD_CAT_ID><ELEMENT_SET_NO>999</ELEMENT_SET_NO><REV_AT_EPOCH>18564</REV_AT_EPOCH><BSTAR>.65514E-3</BSTAR><MEAN_MOTION_DOT>.259E-5</MEAN_MOTION_DOT><MEAN_MOTION_DDOT>0</MEAN_MOTION_DDOT></tleParameters></data></segment></body></omm>

</ndm>
