ONEWEB-0210             
1 48787U 21045W   25087.22794815  .00000157  00000+0  38291-3 0  9994
2 48787  87.9123 348.0261 0002556  72.2143 287.9266 13.15547519185686
ONEWEB-0214             
1 48788U 21045X   25087.23746268  .00000288  00000+0  73216-3 0  9996
2 48788  87.9122 348.0134 0002422  77.7117 282.4284 13.15547320185655
ONEWEB-0221             
1 48789U 21045Y   25087.70014819  .00000142  00000+0  34239-3 0  9990
2 48789  87.9124 347.9474 0001856  72.9246 287.2087 13.15548679186948
ONEWEB-0213             
1 48790U 21045Z   25087.23270174  .00000253  00000+0  63925-3 0  9995
2 48790  87.9125 348.0486 0002175  72.7337 287.4032 13.15547277185809
ONEWEB-0212             
1 48791U 21045AA  25087.28578293 -.00000024  00000+0 -98967-4 0  9997
2 48791  87.9125 348.0262 0001781  77.4152 282.7178 13.15547855185802
ONEWEB-0227             
1 48792U 21045AB  25087.28498927 -.00000067  00000+0 -21304-3 0  9990
2 48792  87.9128 348.0391 0001859  73.3160 286.8174 13.15548376185753
ONEWEB-0226             
1 48793U 21045AC  25087.73500495  .00000063  00000+0  13282-3 0  9995
2 48793  87.9125 347.9548 0002202  73.5439 286.5933 13.15548642186901
ONEWEB-0224             
1 48794U 21045AD  25087.24220460  .00000259  00000+0  65514-3 0  9995
2 48794  87.9127 348.0853 0001412  45.7775 314.3471 13.15547247185648
